{
  "type": "FeatureCollection",
  "features": [
    {
      "type": "Feature",
      "id": "west-plot",
      "properties": {
        "purpose": "Analyst-defined study region; not an administrative boundary"
      },
      "geometry": {
        "type": "Polygon",
        "coordinates": [
          [
            [
              -104.95773511538209,
              39.74829719385045
            ],
            [
              -104.95611031967886,
              39.74829659089856
            ],
            [
              -104.9561119455451,
              39.745734091586606
            ],
            [
              -104.95773668105882,
              39.745734694483986
            ],
            [
              -104.95773511538209,
              39.74829719385045
            ]
          ]
        ]
      }
    },
    {
      "type": "Feature",
      "id": "east-with-exclusion",
      "properties": {
        "purpose": "Study polygon with a demonstration exclusion hole"
      },
      "geometry": {
        "type": "Polygon",
        "coordinates": [
          [
            [
              -104.95597025108606,
              39.748296537855175
            ],
            [
              -104.95428942800176,
              39.74829588815164
            ],
            [
              -104.95429112132176,
              39.7457333889032
            ],
            [
              -104.95597188214104,
              39.745734038548015
            ],
            [
              -104.95597025108606,
              39.748296537855175
            ]
          ],
          [
            [
              -104.95548040768024,
              39.74768005367834
            ],
            [
              -104.95506020565199,
              39.747679891763006
            ],
            [
              -104.95506041638916,
              39.74735552479428
            ],
            [
              -104.95548061644695,
              39.74735568670775
            ],
            [
              -104.95548040768024,
              39.74768005367834
            ]
          ]
        ]
      }
    },
    {
      "type": "Feature",
      "id": "union-plots",
      "properties": {
        "purpose": "Overlapping components demonstrate union semantics"
      },
      "geometry": {
        "type": "MultiPolygon",
        "coordinates": [
          [
            [
              [
                -104.95751164985361,
                39.74724832551641
              ],
              [
                -104.95653118455229,
                39.74724796250773
              ],
              [
                -104.9565316941365,
                39.74643704497519
              ],
              [
                -104.95751214794385,
                39.74643740797349
              ],
              [
                -104.95751164985361,
                39.74724832551641
              ]
            ]
          ],
          [
            [
              [
                -104.9568116212763,
                39.74676151656185
              ],
              [
                -104.95555103191838,
                39.74676104071825
              ],
              [
                -104.95555155298389,
                39.745950123128154
              ],
              [
                -104.95681212756422,
                39.74595059895813
              ],
              [
                -104.9568116212763,
                39.74676151656185
              ]
            ]
          ]
        ]
      }
    },
    {
      "type": "Feature",
      "id": "slanted-plot",
      "properties": {
        "purpose": "Nonrectangular study polygon"
      },
      "geometry": {
        "type": "Polygon",
        "coordinates": [
          [
            [
              -104.95770711488471,
              39.74827555918492
            ],
            [
              -104.95610927867483,
              39.747950490897594
            ],
            [
              -104.95646072388843,
              39.746814365439455
            ],
            [
              -104.95756749566615,
              39.747086378652305
            ],
            [
              -104.95770711488471,
              39.74827555918492
            ]
          ]
        ]
      }
    }
  ]
}
